CCSDS_OMM_VERS = 2.0
CREATION_DATE  = 
ORIGINATOR     = 

OBJECT_NAME    = SL-4 R/B
OBJECT_ID      = 2014-021B
CENTER_NAME    = EARTH
REF_FRAME      = TEME
TIME_SYSTEM    = UTC
MEAN_ELEMENT_THEORY = SGP/SGP4

EPOCH          = 2025-12-10T11:16:21.232416
MEAN_MOTION    = 15.36581185
ECCENTRICITY   = .010196
INCLINATION    = 51.6075
RA_OF_ASC_NODE = 51.6254
ARG_OF_PERICENTER = 138.0124
MEAN_ANOMALY   = 222.8732

EPHEMERIS_TYPE = 0
CLASSIFICATION_TYPE = U
NORAD_CAT_ID   = 39679
ELEMENT_SET_NO = 999
REV_AT_EPOCH   = 64254
BSTAR          = .44418E-3
MEAN_MOTION_DOT = .188E-3
MEAN_MOTION_DDOT = 0

CCSDS_OMM_VERS = 2.0
CREATION_DATE  = 
ORIGINATOR     = 

OBJECT_NAME    = ALOS-2
OBJECT_ID      = 2014-029A
CENTER_NAME    = EARTH
REF_FRAME      = TEME
TIME_SYSTEM    = UTC
MEAN_ELEMENT_THEORY = SGP/SGP4

EPOCH          = 2025-12-10T12:16:02.876160
MEAN_MOTION    = 14.79466326
ECCENTRICITY   = .0001476
INCLINATION    = 97.9227
RA_OF_ASC_NODE = 79.3892
ARG_OF_PERICENTER = 98.4859
MEAN_ANOMALY   = 261.6520

EPHEMERIS_TYPE = 0
CLASSIFICATION_TYPE = U
NORAD_CAT_ID   = 39766
ELEMENT_SET_NO = 999
REV_AT_EPOCH   = 62368
BSTAR          = .28111E-3
MEAN_MOTION_DOT = .2048E-4
MEAN_MOTION_DDOT = 0

CCSDS_OMM_VERS = 2.0
CREATION_DATE  = 
ORIGINATOR     = 

OBJECT_NAME    = YAOGAN-29
OBJECT_ID      = 2015-069A
CENTER_NAME    = EARTH
REF_FRAME      = TEME
TIME_SYSTEM    = UTC
MEAN_ELEMENT_THEORY = SGP/SGP4

EPOCH          = 2025-12-10T12:36:33.259680
MEAN_MOTION    = 14.82878709
ECCENTRICITY   = .0000387
INCLINATION    = 98.0219
RA_OF_ASC_NODE = 7.6896
ARG_OF_PERICENTER = 348.7181
MEAN_ANOMALY   = 11.4023

EPHEMERIS_TYPE = 0
CLASSIFICATION_TYPE = U
NORAD_CAT_ID   = 41038
ELEMENT_SET_NO = 999
REV_AT_EPOCH   = 54266
BSTAR          = .79496E-4
MEAN_MOTION_DOT = .59E-5
MEAN_MOTION_DDOT = 0

CCSDS_OMM_VERS = 2.0
CREATION_DATE  = 
ORIGINATOR     = 

OBJECT_NAME    = ASTRO-H (HITOMI)
OBJECT_ID      = 2016-012A
CENTER_NAME    = EARTH
REF_FRAME      = TEME
TIME_SYSTEM    = UTC
MEAN_ELEMENT_THEORY = SGP/SGP4

EPOCH          = 2025-12-10T07:25:34.973184
MEAN_MOTION    = 15.09329214
ECCENTRICITY   = .0009509
INCLINATION    = 30.9983
RA_OF_ASC_NODE = 213.0404
ARG_OF_PERICENTER = 154.5752
MEAN_ANOMALY   = 205.5355

EPHEMERIS_TYPE = 0
CLASSIFICATION_TYPE = U
NORAD_CAT_ID   = 41337
ELEMENT_SET_NO = 999
REV_AT_EPOCH   = 53871
BSTAR          = .29096E-3
MEAN_MOTION_DOT = .4854E-4
MEAN_MOTION_DDOT = 0

CCSDS_OMM_VERS = 2.0
CREATION_DATE  = 
ORIGINATOR     = 

OBJECT_NAME    = HXMT (HUIYAN)
OBJECT_ID      = 2017-034A
CENTER_NAME    = EARTH
REF_FRAME      = TEME
TIME_SYSTEM    = UTC
MEAN_ELEMENT_THEORY = SGP/SGP4

EPOCH          = 2025-12-10T13:13:28.452864
MEAN_MOTION    = 15.16212640
ECCENTRICITY   = .0031757
INCLINATION    = 43.0129
RA_OF_ASC_NODE = 151.7735
ARG_OF_PERICENTER = 29.2346
MEAN_ANOMALY   = 331.0271

EPHEMERIS_TYPE = 0
CLASSIFICATION_TYPE = U
NORAD_CAT_ID   = 42758
ELEMENT_SET_NO = 999
REV_AT_EPOCH   = 46900
BSTAR          = .25997E-3
MEAN_MOTION_DOT = .494E-4
MEAN_MOTION_DDOT = 0

CCSDS_OMM_VERS = 2.0
CREATION_DATE  = 
ORIGINATOR     = 

OBJECT_NAME    = CZ-2C R/B
OBJECT_ID      = 2018-054D
CENTER_NAME    = EARTH
REF_FRAME      = TEME
TIME_SYSTEM    = UTC
MEAN_ELEMENT_THEORY = SGP/SGP4

EPOCH          = 2025-12-09T16:33:11.338848
MEAN_MOTION    = 15.73265424
ECCENTRICITY   = .00158452
INCLINATION    = 35.1321
RA_OF_ASC_NODE = 201.5714
ARG_OF_PERICENTER = 111.7250
MEAN_ANOMALY   = 248.5171

EPHEMERIS_TYPE = 0
CLASSIFICATION_TYPE = U
NORAD_CAT_ID   = 43521
ELEMENT_SET_NO = 999
REV_AT_EPOCH   = 41457
BSTAR          = .77805865E-3
MEAN_MOTION_DOT = .113735E-2
MEAN_MOTION_DDOT = 0

CCSDS_OMM_VERS = 2.0
CREATION_DATE  = 
ORIGINATOR     = 

OBJECT_NAME    = SAOCOM 1A
OBJECT_ID      = 2018-076A
CENTER_NAME    = EARTH
REF_FRAME      = TEME
TIME_SYSTEM    = UTC
MEAN_ELEMENT_THEORY = SGP/SGP4

EPOCH          = 2025-12-10T12:16:39.182304
MEAN_MOTION    = 14.82152219
ECCENTRICITY   = .0001503
INCLINATION    = 97.8845
RA_OF_ASC_NODE = 168.9662
ARG_OF_PERICENTER = 81.6300
MEAN_ANOMALY   = 278.5083

EPHEMERIS_TYPE = 0
CLASSIFICATION_TYPE = U
NORAD_CAT_ID   = 43641
ELEMENT_SET_NO = 999
REV_AT_EPOCH   = 38815
BSTAR          = .35784E-4
MEAN_MOTION_DOT = .233E-5
MEAN_MOTION_DDOT = 0

CCSDS_OMM_VERS = 2.0
CREATION_DATE  = 
ORIGINATOR     = 

OBJECT_NAME    = H-2A R/B
OBJECT_ID      = 2018-084L
CENTER_NAME    = EARTH
REF_FRAME      = TEME
TIME_SYSTEM    = UTC
MEAN_ELEMENT_THEORY = SGP/SGP4

EPOCH          = 2025-12-10T11:30:24.796224
MEAN_MOTION    = 15.37240159
ECCENTRICITY   = .0027551
INCLINATION    = 98.8781
RA_OF_ASC_NODE = 178.0902
ARG_OF_PERICENTER = 334.3366
MEAN_ANOMALY   = 25.6504

EPHEMERIS_TYPE = 0
CLASSIFICATION_TYPE = U
NORAD_CAT_ID   = 43682
ELEMENT_SET_NO = 999
REV_AT_EPOCH   = 39205
BSTAR          = .72755E-3
MEAN_MOTION_DOT = .26834E-3
MEAN_MOTION_DDOT = 0

CCSDS_OMM_VERS = 2.0
CREATION_DATE  = 
ORIGINATOR     = 

OBJECT_NAME    = SAOCOM 1B
OBJECT_ID      = 2020-059A
CENTER_NAME    = EARTH
REF_FRAME      = TEME
TIME_SYSTEM    = UTC
MEAN_ELEMENT_THEORY = SGP/SGP4

EPOCH          = 2025-12-10T11:24:26.530848
MEAN_MOTION    = 14.82156154
ECCENTRICITY   = .0001289
INCLINATION    = 97.8841
RA_OF_ASC_NODE = 168.0308
ARG_OF_PERICENTER = 85.7366
MEAN_ANOMALY   = 274.3994

EPHEMERIS_TYPE = 0
CLASSIFICATION_TYPE = U
NORAD_CAT_ID   = 46265
ELEMENT_SET_NO = 999
REV_AT_EPOCH   = 28553
BSTAR          = .11963E-3
MEAN_MOTION_DOT = .9E-5
MEAN_MOTION_DDOT = 0

CCSDS_OMM_VERS = 2.0
CREATION_DATE  = 
ORIGINATOR     = 

OBJECT_NAME    = CSS (TIANHE)
OBJECT_ID      = 2021-035A
CENTER_NAME    = EARTH
REF_FRAME      = TEME
TIME_SYSTEM    = UTC
MEAN_ELEMENT_THEORY = SGP/SGP4

EPOCH          = 2025-12-10T11:20:41.983296
MEAN_MOTION    = 15.59027683
ECCENTRICITY   = .0008789
INCLINATION    = 41.4682
RA_OF_ASC_NODE = 30.4693
ARG_OF_PERICENTER = 12.0744
MEAN_ANOMALY   = 348.0303

EPHEMERIS_TYPE = 0
CLASSIFICATION_TYPE = U
NORAD_CAT_ID   = 48274
ELEMENT_SET_NO = 999
REV_AT_EPOCH   = 26367
BSTAR          = .42786E-3
MEAN_MOTION_DOT = .34161E-3
MEAN_MOTION_DDOT = 0

CCSDS_OMM_VERS = 2.0
CREATION_DATE  = 
ORIGINATOR     = 

OBJECT_NAME    = COSMOS 2550
OBJECT_ID      = 2021-056A
CENTER_NAME    = EARTH
REF_FRAME      = TEME
TIME_SYSTEM    = UTC
MEAN_ELEMENT_THEORY = SGP/SGP4

EPOCH          = 2025-12-09T08:02:46.062240
MEAN_MOTION    = 15.33838976
ECCENTRICITY   = .0008326
INCLINATION    = 67.1455
RA_OF_ASC_NODE = 314.2314
ARG_OF_PERICENTER = 269.7288
MEAN_ANOMALY   = 90.2912

EPHEMERIS_TYPE = 0
CLASSIFICATION_TYPE = U
NORAD_CAT_ID   = 48865
ELEMENT_SET_NO = 999
REV_AT_EPOCH   = 24960
BSTAR          = .63535E-5
MEAN_MOTION_DOT = .17E-6
MEAN_MOTION_DDOT = 0

CCSDS_OMM_VERS = 2.0
CREATION_DATE  = 
ORIGINATOR     = 

OBJECT_NAME    = CZ-2C R/B
OBJECT_ID      = 2022-058K
CENTER_NAME    = EARTH
REF_FRAME      = TEME
TIME_SYSTEM    = UTC
MEAN_ELEMENT_THEORY = SGP/SGP4

EPOCH          = 2025-12-10T05:25:12.252000
MEAN_MOTION    = 15.48324044
ECCENTRICITY   = .0045665
INCLINATION    = 50.1906
RA_OF_ASC_NODE = 56.3678
ARG_OF_PERICENTER = 188.0814
MEAN_ANOMALY   = 171.9424

EPHEMERIS_TYPE = 0
CLASSIFICATION_TYPE = U
NORAD_CAT_ID   = 52794
ELEMENT_SET_NO = 999
REV_AT_EPOCH   = 19624
BSTAR          = .63455E-3
MEAN_MOTION_DOT = .35321E-3
MEAN_MOTION_DDOT = 0

