SL-4 R/B                
1 39679U 14021B   25344.46969019  .00018800  00000+0  44418-3 0  9994
2 39679  51.6075  51.6254 0101960 138.0124 222.8732 15.36581185642549
ALOS-2                  
1 39766U 14029A   25344.51114440  .00002048  00000+0  28111-3 0  9994
2 39766  97.9227  79.3892 0001476  98.4859 261.6520 14.79466326623683
YAOGAN-29               
1 41038U 15069A   25344.52538495  .00000590  00000+0  79496-4 0  9998
2 41038  98.0219   7.6896 0000387 348.7181  11.4023 14.82878709542661
ASTRO-H (HITOMI)        
1 41337U 16012A   25344.30943256  .00004854  00000+0  29096-3 0  9997
2 41337  30.9983 213.0404 0009509 154.5752 205.5355 15.09329214538713
HXMT (HUIYAN)           
1 42758U 17034A   25344.55102376  .00004940  00000+0  25997-3 0  9999
2 42758  43.0129 151.7735 0031757  29.2346 331.0271 15.16212640469009
CZ-2C R/B               
1 43521U 18054D   25343.68971457  .00113735  00000+0  77806-3 0  9997
2 43521  35.1321 201.5714 0015845 111.7250 248.5171 15.73265424414570
SAOCOM 1A               
1 43641U 18076A   25344.51156461  .00000233  00000+0  35784-4 0  9995
2 43641  97.8845 168.9662 0001503  81.6300 278.5083 14.82152219388159
H-2A R/B                
1 43682U 18084L   25344.47945366  .00026834  00000+0  72755-3 0  9997
2 43682  98.8781 178.0902 0027551 334.3366  25.6504 15.37240159392059
SAOCOM 1B               
1 46265U 20059A   25344.47530707  .00000900  00000+0  11963-3 0  9991
2 46265  97.8841 168.0308 0001289  85.7366 274.3994 14.82156154285531
CSS (TIANHE)            
1 48274U 21035A   25344.47270814  .00034161  00000+0  42786-3 0  9991
2 48274  41.4682  30.4693 0008789  12.0744 348.0303 15.59027683263678
COSMOS 2550             
1 48865U 21056A   25343.33525535  .00000017  00000+0  63535-5 0  9997
2 48865  67.1455 314.2314 0008326 269.7288  90.2912 15.33838976249607
CZ-2C R/B               
1 52794U 22058K   25344.22583625  .00035321  00000+0  63455-3 0  9994
2 52794  50.1906  56.3678 0045665 188.0814 171.9424 15.48324044196246
